{"fetched_at":"2026-07-14T06:35:00.746Z","source":"https://celestrak.org/NORAD/elements/gp.php?NAME=RADARSAT&FORMAT=JSON","constellation":"radarsat-2","records":[{"OBJECT_NAME":"RADARSAT-2","OBJECT_ID":"2007-061A","EPOCH":"2026-07-13T21:45:32.565888","CLASSIFICATION_TYPE":"U","MEAN_MOTION":14.29983026,"ECCENTRICITY":0.0001322,"INCLINATION":98.578,"RA_OF_ASC_NODE":201.4572,"ARG_OF_PERICENTER":84.7113,"MEAN_ANOMALY":275.422,"EPHEMERIS_TYPE":0,"NORAD_CAT_ID":32382,"ELEMENT_SET_NO":999,"REV_AT_EPOCH":96977,"BSTAR":0.000014913,"MEAN_MOTION_DOT":-5e-8,"MEAN_MOTION_DDOT":0}]}
