RADARSAT-2              
1 32382U 07061A   26194.90662692 -.00000005  00000+0  14913-4 0  9991
2 32382  98.5780 201.4572 0001322  84.7113 275.4220 14.29983026969774
